TERRESTAR-1             
1 35496U 09035A   15343.02411276 -.00000046  00000-0  00000+0 0  9993
2 35496   3.3695 335.2360 0003327 281.0163  78.8902  1.00271916 23627
ASIASAT 5               
1 35696U 09042A   15343.69980622 -.00000296  00000-0  00000+0 0  9999
2 35696   0.0410 116.6886 0001458 124.9673 188.9239  1.00272242 23142
JCSAT-RA (JCSAT-12)     
1 35755U 09044A   15343.42838494 -.00000334  00000-0  00000+0 0  9990
2 35755   0.0574  43.6540 0000841 180.2568 136.1058  1.00270781 23137
OPTUS D3                
1 35756U 09044B   15341.75320537 -.00000138  00000-0  00000-0 0  9992
2 35756   0.0561  35.7349 0003424 247.8765 219.7448  1.00270638 23022
PALAPA D                
1 35812U 09046A   15342.47289163 -.00000347  00000-0  00000+0 0  9997
2 35812   0.0258 352.6199 0002397 284.8981  82.4548  1.00270566 23139
NIMIQ 5                 
1 35873U 09050A   15343.32527494 -.00000245  00000-0  00000+0 0  9993
2 35873   0.0123 299.6542 0001813 319.9327 222.5671  1.00270368 22824
AMAZONAS 2              
1 35942U 09054A   15342.48467718 -.00000272  00000-0  00000+0 0  9992
2 35942   0.0509 132.9361 0002962  77.2526 340.2426  1.00273811 22662
COMSATBW-1              
1 35943U 09054B   15343.98674623  .00000036  00000-0  00000+0 0  9991
2 35943   0.0538  80.3669 0002677 191.5599 224.7054  1.00272873 22733
NSS-12                  
1 36032U 09058A   15343.62457807  .00000083  00000-0  00000+0 0  9991
2 36032   0.0393 328.8613 0002693 291.0621 100.0462  1.00266274 22424
THOR 6                  
1 36033U 09058B   15344.24280303  .00000002  00000-0  00000+0 0  9997
2 36033   0.0105 334.8398 0001907 312.1647 238.2090  1.00271135 22448
INTELSAT 14 (IS-14)     
1 36097U 09064A   15343.90759419 -.00000262  00000-0  00000+0 0  9994
2 36097   0.0278 322.1035 0002898 302.3833  95.4802  1.00272589 22184
EUTELSAT 36B            
1 36101U 09065A   15343.11618012  .00000167  00000-0  00000+0 0  9990
2 36101   0.0636 354.8530 0004311 270.1843 250.2448  1.00271527 22273
INTELSAT 15 (IS-15)     
1 36106U 09067A   15343.85780595 -.00000174  00000-0  00000+0 0  9993
2 36106   0.0125 336.9728 0002633 299.4886 195.7855  1.00271570 22078
DIRECTV 12              
1 36131U 09075A   15344.35349039 -.00000091  00000-0  00000+0 0  9998
2 36131   0.0426 158.2529 0000136 237.9329  67.0581  1.00268340 21863
BEIDOU G1               
1 36287U 10001A   15343.52867050 -.00000272  00000-0  10000-3 0  9993
2 36287   1.5609   6.0537 0004624 221.6283 180.5775  1.00277150 21649
RADUGA-1M 2             
1 36358U 10002A   15344.04219064 -.00000173  00000-0  00000+0 0  9992
2 36358   0.0076 329.1944 0003102 332.7625 236.7040  1.00273657 21484
SDO                     
1 36395U 10005A   15342.47797918 -.00000011  00000-0  00000-0 0  9992
2 36395  28.2447 150.5262 0002294 160.3043 196.6167  1.00271707 21510
INTELSAT 16 (IS-16)     
1 36397U 10006A   15343.50432043 -.00000233  00000-0  00000+0 0  9990
2 36397   0.0387  93.2351 0001914 153.3000 296.7854  1.00270670 21207
GOES 15                 
1 36411U 10008A   15344.15763728  .00000101  00000-0  00000+0 0  9991
2 36411   0.1942 263.6131 0002850 356.7595  99.6190  1.00277150 21167
ECHOSTAR 14             
1 36499U 10010A   15344.34172411  .00000012  00000-0  00000+0 0  9995
2 36499   0.0147 320.1601 0002881 295.4205 187.3091  1.00271853 21014
SES-1                   
1 36516U 10016A   15344.32082035 -.00000102  00000-0  00000+0 0  9992
2 36516   0.0193 325.7430 0002582 249.6685 237.8563  1.00267921 20618
ASTRA 3B                
1 36581U 10021A   15344.11683873  .00000149  00000-0  00000+0 0  9994
2 36581   0.0539  11.4201 0002808 241.3762 251.3111  1.00274344 20139
COMSATBW-2              
1 36582U 10021B   15343.81033856  .00000101  00000-0  00000+0 0  9999
2 36582   0.0460 291.8138 0002971 351.6988  99.6938  1.00276857 20469
BEIDOU G3               
1 36590U 10024A   15343.02299775 -.00000344  00000-0  00000+0 0  9998
2 36590   1.4158  26.1398 0004832 280.9350 249.1927  1.00268360 20245
BADR-5                  
1 36592U 10025A   15342.98191741  .00000156  00000-0  00000+0 0  9999
2 36592   0.0163  27.4052 0003691 197.7676 231.7517  1.00275065 20362
COMS 1                  
1 36744U 10032A   15344.34893890 -.00000332  00000-0  00000+0 0  9999
2 36744   0.0077  74.2908 0000755 220.4673  37.8464  1.00270903 20120
ARABSAT-5A              
1 36745U 10032B   15343.11605815  .00000165  00000-0  00000+0 0  9995
2 36745   0.0531   0.2546 0002919 260.2730 249.2924  1.00270317 20098
ECHOSTAR 15             
1 36792U 10034A   15343.49681064 -.00000270  00000-0  00000+0 0  9998
2 36792   0.0360  39.8223 0001669 216.4782 298.8514  1.00273052 19868
BEIDOU IGSO 1           
1 36828U 10036A   15344.23548672 -.00000051  00000-0  10000-3 0  9992
2 36828  54.2639 198.9950 0041477 213.9689 228.9340  1.00293300 19691
NILESAT 201             
1 36830U 10037A   15343.94676047 -.00000046  00000-0  00000+0 0  9990
2 36830   0.0254 156.0304 0003175  94.3759 161.7752  1.00269671 19769
RASCOM-QAF 1R           
1 36831U 10037B   15343.77463167  .00000030  00000-0  00000+0 0  9991
2 36831   0.0154  37.9573 0004613 227.0171  94.9962  1.00271751 19767
CHINASAT 6A (ZX 6A)     
1 37150U 10042A   15343.52828935 -.00000342  00000-0  00000+0 0  9990
2 37150   0.0594 119.4032 0001408 149.1248 124.7006  1.00272189 19378
XM-5                    
1 37185U 10053A   15344.39609598 -.00000196  00000-0  00000+0 0  9995
2 37185   0.0145 314.5944 0001025 310.7220 230.8943  1.00296660 18928
BSAT-3B                 
1 37207U 10056B   15343.71571421 -.00000338  00000-0  00000+0 0  9999
2 37207   0.0589 322.0312 0004905 327.7894 155.8438  1.00268981 18754
BEIDOU G4               
1 37210U 10057A   15343.53269185 -.00000101  00000-0  00000+0 0  9993
2 37210   0.8134  43.1994 0008396 181.2224 205.2344  1.00271486 18757
SKYTERRA 1              
1 37218U 10061A   15343.96849268 -.00000107  00000-0  00000+0 0  9995
2 37218   3.9043 325.7634 0004802 213.2754 146.7096  1.00271995 18703
ZHONGXING-20A           
1 37234U 10064A   15343.84713997 -.00000325  00000-0  00000+0 0  9994
2 37234   0.0369 257.0328 0004607  60.7557 195.4905  1.00270343 18500
HYLAS 1                 
1 37237U 10065A   15344.31418081 -.00000222  00000-0  00000+0 0  9993
2 37237   0.0470 303.3539 0002117  26.7233 188.2433  1.00267540 18480
INTELSAT 17 (IS-17)     
1 37238U 10065B   15344.11121307  .00000010  00000-0  00000+0 0  9998
2 37238   0.0240  26.5144 0003100 239.7011 278.3208  1.00271264 18394
BEIDOU IGSO 2           
1 37256U 10068A   15343.87866005 -.00000229  00000-0  10000-3 0  9992
2 37256  53.8074 317.7093 0042459 208.3817 345.2722  1.00300478 18271
EUTELSAT KA-SAT 9A      
1 37258U 10069A   15342.12430458  .00000072  00000-0  00000+0 0  9991
2 37258   0.0448 293.2500 0002131 118.5133  78.5898  1.00273298 18278
HISPASAT 1E             
1 37264U 10070A   15343.36300273 -.00000205  00000-0  00000+0 0  9997
2 37264   0.0484 138.0574 0003095  86.7005 313.7157  1.00270674 18138
KOREASAT 6              
1 37265U 10070B   15343.90616091 -.00000350  00000-0  00000+0 0  9997
2 37265   0.0104 339.2186 0001913 286.8534 254.4756  1.00270652 18164
ELEKTRO-L 1 (GOMS 2)    
1 37344U 11001A   15343.53858030 -.00000087  00000-0  00000+0 0  9997
2 37344   1.3274  80.0758 0002662  96.8174 171.1148  1.00270760 17935
BEIDOU IGSO 3           
1 37384U 11013A   15343.89740753 -.00000197  00000-0  10000-3 0  9992
2 37384  57.1482  78.7751 0025594 197.9056 244.8759  1.00263983 17156
INTELSAT NEW DAWN       
1 37392U 11016A   15341.13859196  .00000164  00000-0  00000-0 0  9990
2 37392   0.0163 351.3728 0000844 312.3919 214.5489  1.00274519 14747
YAHSAT 1A               
1 37393U 11016B   15344.11225119  .00000113  00000-0  00000+0 0  9997
2 37393   0.0143 294.2051 0002018 325.8112 271.4280  1.00266321 17059
TELSTAR 14R             
1 37602U 11021A   15342.41794541 -.00000270  00000-0  00000+0 0  9992
2 37602   0.0389  53.7820 0002778 201.7494 268.7900  1.00270805 17245
GSAT-8                  
1 37605U 11022A   15343.75706047  .00000096  00000-0  00000+0 0  9993
2 37605   0.0593  95.3921 0008142 168.0051 142.4329  1.00271942 16711
ST-2                    
1 37606U 11022B   15343.86234583 -.00000199  00000-0  00000+0 0  9992
2 37606   0.0174 326.9533 0001565 306.4770 203.3049  1.00269573 16721
CHINASAT 10 (ZX 10)     
1 37677U 11026A   15344.48927654 -.00000340  00000-0  00000+0 0  9999
2 37677   0.0040  25.8667 0003880 215.2306 124.4434  1.00268732 16455
TIANLIAN 1-02           
1 37737U 11032A   15343.67462718 -.00000037  00000-0  00000+0 0  9991
2 37737   1.4614  79.8384 0033424 190.4154 217.7076  1.00272896 16196
GSAT-12                 
1 37746U 11034A   15343.54082744 -.00000153  00000-0  00000+0 0  9995
2 37746   0.0617  96.8853 0002785  28.5704 230.2080  1.00270978 16433
SES-3                   
1 37748U 11035A   15343.46107546 -.00000090  00000-0  00000+0 0  9997
2 37748   0.0224 314.3271 0002387 317.0106 229.5454  1.00272200 16167
KAZSAT-2                
1 37749U 11035B   15343.86007463 -.00000186  00000-0  00000+0 0  9995
2 37749   0.0041 348.1740 0001120 348.6176 137.5916  1.00272436 16041
BEIDOU IGSO 4           
1 37763U 11038A   15343.45132200 -.00000001  00000-0  10000-3 0  9998
2 37763  54.5747 201.2774 0034381 200.7752 294.2805  1.00277468 16119
ASTRA 1N                
1 37775U 11041A   15344.24758872  .00000132  00000-0  00000+0 0  9991
2 37775   0.0483 298.2266 0001424 337.2207 271.4955  1.00276476 15873
BSAT-3C (JCSAT-110R)    
1 37776U 11041B   15344.41937383 -.00000339  00000-0  00000+0 0  9997
2 37776   0.0171  27.9348 0000296 284.7108  27.1178  1.00268911 16013
PAKSAT-1R               
1 37779U 11042A   15343.16371161  .00000165  00000-0  00000+0 0  9994
2 37779   0.0069 201.4518 0002715  52.5883 280.4598  1.00275932 15749
CHINASAT 1A (ZX 1A)     
1 37804U 11047A   15341.75775237 -.00000328  00000-0  00000+0 0  9995
2 37804   0.0193 140.0577 0003343 165.3398 173.4651  1.00272614 15533
